0 COSMOS 2251 DEB
1 37314U 93036BKE 13281.92842888  .00009594  00000-0  15920-2 0  3645
2 37314 073.9460 359.8821 0116085 278.1379 204.9418 14.65879813200601
0 COSMOS 2251 DEB
1 37314U 93036BKE 13283.55460769  .00008875  00000-0  14724-2 0  3653
2 37314 073.9461 356.7311 0116130 274.6629 146.5908 14.65902914200842
0 COSMOS 2251 DEB
1 37314U 93036BKE 13285.25985600  .00006356  00000-0  10560-2 0  3665
2 37314 073.9465 353.4272 0116146 271.0220 145.6326 14.65926449201092
0 COSMOS 2251 DEB
1 37314U 93036BKE 13287.51248962  .00007557  00000-0  12535-2 0  3678
2 37314 073.9468 349.0628 0116158 266.2318 153.5624 14.65952026201424
0 COSMOS 2251 DEB
1 37314U 93036BKE 13287.86540744  .00012179  00000-0  20146-2 0  3683
2 37314 073.9467 348.3788 0116130 265.4740 216.0591 14.65960723201478
0 COSMOS 2251 DEB
1 37314U 93036BKE 13289.84471300  .00009184  00000-0  15202-2 0  3694
2 37314 073.9458 344.5434 0116095 261.2429 221.8505 14.65995408201761
0 COSMOS 2251 DEB
1 37314U 93036BKE 13292.84731718  .00008966  00000-0  14828-2 0  3702
2 37314 073.9448 338.7246 0116009 254.8283 228.5394 14.66043908202207
0 COSMOS 2251 DEB
1 37314U 93036BKE 13295.49776222  .00010837  00000-0  17891-2 0  3719
2 37314 073.9445 333.5872 0115940 249.1519 177.0927 14.66081657202599
